{"type": "FeatureCollection", "features": [ {"type": "Feature", "properties": {"norad_id": 57401, "name": "TIANMU-1 09", "group": "weather", "lat": -74.36955839939782, "lon": 64.56486496330245, "alt_km": 493.0321059587159, "timestamp": "2025-12-14T05:42:18.099662+00:00", "meta": {"OBJECT_NAME": "TIANMU-1 09", "OBJECT_ID": "2023-101C", "EPOCH": "2025-12-13T15:53:37.485024", "MEAN_MOTION": 15.28104302, "ECCENTRICITY": 0.00067956, "INCLINATION": 97.2827, "RA_OF_ASC_NODE": 36.8024, "ARG_OF_PERICENTER": 81.4371, "MEAN_ANOMALY": 278.7639, "EPHEMERIS_TYPE": 0, "CLASSIFICATION_TYPE": "U", "NORAD_CAT_ID": 57401, "ELEMENT_SET_NO": 999, "REV_AT_EPOCH": 13329, "BSTAR": 0.00031869443, "MEAN_MOTION_DOT": 8.668e-05, "MEAN_MOTION_DDOT": 0}, "tle": {"line1": "1 57401U 23101C   25347.66223941  .00008668  00000+0  31869-3 0  9995", "line2": "2 57401  97.2827  36.8024 0006795  81.4371 278.7639 15.28104302133294"}}, "geometry": {"type": "Point", "coordinates": [64.56486496330245, -74.36955839939782]}}, {"type": "Feature", "properties": {"norad_id": 57402, "name": "TIANMU-1 10", "group": "weather", "lat": 80.65957471287898, "lon": -90.67053036382697, "alt_km": 468.5138824782107, "timestamp": "2025-12-14T05:42:18.099672+00:00", "meta": {"OBJECT_NAME": "TIANMU-1 10", "OBJECT_ID": "2023-101D", "EPOCH": "2025-12-13T16:42:54.030816", "MEAN_MOTION": 15.28095998, "ECCENTRICITY": 0.0008481, "INCLINATION": 97.2908, "RA_OF_ASC_NODE": 37.6868, "ARG_OF_PERICENTER": 80.6194, "MEAN_ANOMALY": 279.6004, "EPHEMERIS_TYPE": 0, "CLASSIFICATION_TYPE": "U", "NORAD_CAT_ID": 57402, "ELEMENT_SET_NO": 999, "REV_AT_EPOCH": 13329, "BSTAR": 0.00034716115, "MEAN_MOTION_DOT": 9.45e-05, "MEAN_MOTION_DDOT": 0}, "tle": {"line1": "1 57402U 23101D   25347.69645869  .00009450  00000+0  34716-3 0  9990", "line2": "2 57402  97.2908  37.6868 0008481  80.6194 279.6004 15.28095998133294"}}, "geometry": {"type": "Point", "coordinates": [-90.67053036382697, 80.65957471287898]}}, {"type": "Feature", "properties": {"norad_id": 57490, "name": "FENGYUN 3F", "group": "weather", "lat": 46.215875912926435, "lon": -114.29123542910905, "alt_km": 821.20964015341, "timestamp": "2025-12-14T05:42:18.099684+00:00", "meta": {"OBJECT_NAME": "FENGYUN 3F", "OBJECT_ID": "2023-111A", "EPOCH": "2025-12-13T15:33:03.710304", "MEAN_MOTION": 14.1989391, "ECCENTRICITY": 6.855e-05, "INCLINATION": 98.7083, "RA_OF_ASC_NODE": 55.9267, "ARG_OF_PERICENTER": 103.9391, "MEAN_ANOMALY": 256.1862, "EPHEMERIS_TYPE": 0, "CLASSIFICATION_TYPE": "U", "NORAD_CAT_ID": 57490, "ELEMENT_SET_NO": 999, "REV_AT_EPOCH": 12253, "BSTAR": 8.3066467e-05, "MEAN_MOTION_DOT": 1.33e-06, "MEAN_MOTION_DDOT": 0}, "tle": {"line1": "1 57490U 23111A   25347.64795961  .00000133  00000+0  83066-4 0  9994", "line2": "2 57490  98.7083  55.9267 0000685 103.9391 256.1862 14.19893910122539"}}, "geometry": {"type": "Point", "coordinates": [-114.29123542910905, 46.215875912926435]}}, {"type": "Feature", "properties": {"norad_id": 58584, "name": "ARKTIKA-M 2", "group": "weather", "lat": 34.46027195693498, "lon": -25.55965715133033, "alt_km": 17728.543363869525, "timestamp": "2025-12-14T05:42:18.099697+00:00", "meta": {"OBJECT_NAME": "ARKTIKA-M 2", "OBJECT_ID": "2023-198A", "EPOCH": "2025-12-08T20:10:13.977120", "MEAN_MOTION": 2.0060476, "ECCENTRICITY": 0.68646991, "INCLINATION": 63.2247, "RA_OF_ASC_NODE": 175.3152, "ARG_OF_PERICENTER": 268.1185, "MEAN_ANOMALY": 18.8267, "EPHEMERIS_TYPE": 0, "CLASSIFICATION_TYPE": "U", "NORAD_CAT_ID": 58584, "ELEMENT_SET_NO": 999, "REV_AT_EPOCH": 1450, "BSTAR": 0, "MEAN_MOTION_DOT": 1.66e-06, "MEAN_MOTION_DDOT": 0}, "tle": {"line1": "1 58584U 23198A   25342.84043955  .00000166  00000+0  00000+0 0  9998", "line2": "2 58584  63.2247 175.3152 6864699 268.1185  18.8267  2.00604760 14506"}}, "geometry": {"type": "Point", "coordinates": [-25.55965715133033, 34.46027195693498]}}, {"type": "Feature", "properties": {"norad_id": 58645, "name": "TIANMU-1 11", "group": "weather", "lat": -74.36567569876972, "lon": 160.32142440323034, "alt_km": 495.67534355346834, "timestamp": "2025-12-14T05:42:18.099725+00:00", "meta": {"OBJECT_NAME": "TIANMU-1 11", "OBJECT_ID": "2023-205A", "EPOCH": "2025-12-13T15:58:58.214784", "MEAN_MOTION": 15.2461575, "ECCENTRICITY": 0.00078357, "INCLINATION": 97.3612, "RA_OF_ASC_NODE": 7.2731, "ARG_OF_PERICENTER": 306.6033, "MEAN_ANOMALY": 53.4483, "EPHEMERIS_TYPE": 0, "CLASSIFICATION_TYPE": "U", "NORAD_CAT_ID": 58645, "ELEMENT_SET_NO": 999, "REV_AT_EPOCH": 10923, "BSTAR": 0.00032881546, "MEAN_MOTION_DOT": 8.049e-05, "MEAN_MOTION_DDOT": 0}, "tle": {"line1": "1 58645U 23205A   25347.66595156  .00008049  00000+0  32882-3 0  9990", "line2": "2 58645  97.3612   7.2731 0007835 306.6033  53.4483 15.24615750109230"}}, "geometry": {"type": "Point", "coordinates": [160.32142440323034, -74.36567569876972]}}, {"type": "Feature", "properties": {"norad_id": 58646, "name": "TIANMU-1 12", "group": "weather", "lat": 70.76594430465968, "lon": -150.61580018508545, "alt_km": 489.45775034307917, "timestamp": "2025-12-14T05:42:18.099737+00:00", "meta": {"OBJECT_NAME": "TIANMU-1 12", "OBJECT_ID": "2023-205B", "EPOCH": "2025-12-13T15:03:21.502944", "MEAN_MOTION": 15.24497544, "ECCENTRICITY": 0.00058415, "INCLINATION": 97.3599, "RA_OF_ASC_NODE": 7.0404, "ARG_OF_PERICENTER": 287.4288, "MEAN_ANOMALY": 72.6311, "EPHEMERIS_TYPE": 0, "CLASSIFICATION_TYPE": "U", "NORAD_CAT_ID": 58646, "ELEMENT_SET_NO": 999, "REV_AT_EPOCH": 10921, "BSTAR": 0.00032082772, "MEAN_MOTION_DOT": 7.821e-05, "MEAN_MOTION_DDOT": 0}, "tle": {"line1": "1 58646U 23205B   25347.62733221  .00007821  00000+0  32083-3 0  9994", "line2": "2 58646  97.3599   7.0404 0005841 287.4288  72.6311 15.24497544109213"}}, "geometry": {"type": "Point", "coordinates": [-150.61580018508545, 70.76594430465968]}}, {"type": "Feature", "properties": {"norad_id": 58647, "name": "TIANMU-1 13", "group": "weather", "lat": -74.20649204969631, "lon": 35.04516716916147, "alt_km": 495.65984004656093, "timestamp": "2025-12-14T05:42:18.099747+00:00", "meta": {"OBJECT_NAME": "TIANMU-1 13", "OBJECT_ID": "2023-205C", "EPOCH": "2025-12-13T15:51:37.826208", "MEAN_MOTION": 15.24541752, "ECCENTRICITY": 0.00060287, "INCLINATION": 97.3627, "RA_OF_ASC_NODE": 7.2746, "ARG_OF_PERICENTER": 262.9426, "MEAN_ANOMALY": 97.1126, "EPHEMERIS_TYPE": 0, "CLASSIFICATION_TYPE": "U", "NORAD_CAT_ID": 58647, "ELEMENT_SET_NO": 999, "REV_AT_EPOCH": 10921, "BSTAR": 0.0003321585, "MEAN_MOTION_DOT": 8.111e-05, "MEAN_MOTION_DDOT": 0}, "tle": {"line1": "1 58647U 23205C   25347.66085447  .00008111  00000+0  33216-3 0  9991", "line2": "2 58647  97.3627   7.2746 0006028 262.9426  97.1126 15.24541752109214"}}, "geometry": {"type": "Point", "coordinates": [35.04516716916147, -74.20649204969631]}}, {"type": "Feature", "properties": {"norad_id": 58648, "name": "TIANMU-1 14", "group": "weather", "lat": 14.800782047892538, "lon": 5.232523226260573, "alt_km": 494.6281357661528, "timestamp": "2025-12-14T05:42:18.099757+00:00", "meta": {"OBJECT_NAME": "TIANMU-1 14", "OBJECT_ID": "2023-205D", "EPOCH": "2025-12-13T15:27:44.341344", "MEAN_MOTION": 15.24524838, "ECCENTRICITY": 0.00068295, "INCLINATION": 97.3559, "RA_OF_ASC_NODE": 6.606, "ARG_OF_PERICENTER": 268.9064, "MEAN_ANOMALY": 91.1391, "EPHEMERIS_TYPE": 0, "CLASSIFICATION_TYPE": "U", "NORAD_CAT_ID": 58648, "ELEMENT_SET_NO": 999, "REV_AT_EPOCH": 10921, "BSTAR": 0.00031551416, "MEAN_MOTION_DOT": 7.698e-05, "MEAN_MOTION_DDOT": 0}, "tle": {"line1": "1 58648U 23205D   25347.64426321  .00007698  00000+0  31551-3 0  9999", "line2": "2 58648  97.3559   6.6060 0006829 268.9064  91.1391 15.24524838109218"}}, "geometry": {"type": "Point", "coordinates": [5.232523226260573, 14.800782047892538]}}, {"type": "Feature", "properties": {"norad_id": 58660, "name": "TIANMU-1 19", "group": "weather", "lat": -70.64892730144594, "lon": 121.11152394013915, "alt_km": 487.2837307183945, "timestamp": "2025-12-14T05:42:18.099768+00:00", "meta": {"OBJECT_NAME": "TIANMU-1 19", "OBJECT_ID": "2023-208A", "EPOCH": "2025-12-13T14:18:07.101792", "MEAN_MOTION": 15.27875204, "ECCENTRICITY": 0.00041342, "INCLINATION": 97.4384, "RA_OF_ASC_NODE": 98.6311, "ARG_OF_PERICENTER": 248.9684, "MEAN_ANOMALY": 111.1114, "EPHEMERIS_TYPE": 0, "CLASSIFICATION_TYPE": "U", "NORAD_CAT_ID": 58660, "ELEMENT_SET_NO": 999, "REV_AT_EPOCH": 10895, "BSTAR": 0.0005294106, "MEAN_MOTION_DOT": 0.00014348, "MEAN_MOTION_DDOT": 0}, "tle": {"line1": "1 58660U 23208A   25347.59591553  .00014348  00000+0  52941-3 0  9996", "line2": "2 58660  97.4384  98.6311 0004134 248.9684 111.1114 15.27875204108957"}}, "geometry": {"type": "Point", "coordinates": [121.11152394013915, -70.64892730144594]}}, {"type": "Feature", "properties": {"norad_id": 58661, "name": "TIANMU-1 20", "group": "weather", "lat": 8.433717071723985, "lon": 98.61139773919378, "alt_km": 481.8876417872116, "timestamp": "2025-12-14T05:42:18.099777+00:00", "meta": {"OBJECT_NAME": "TIANMU-1 20", "OBJECT_ID": "2023-208B", "EPOCH": "2025-12-13T15:31:57.342144", "MEAN_MOTION": 15.29063889, "ECCENTRICITY": 0.00063137, "INCLINATION": 97.4321, "RA_OF_ASC_NODE": 99.1306, "ARG_OF_PERICENTER": 262.0627, "MEAN_ANOMALY": 97.9897, "EPHEMERIS_TYPE": 0, "CLASSIFICATION_TYPE": "U", "NORAD_CAT_ID": 58661, "ELEMENT_SET_NO": 999, "REV_AT_EPOCH": 10903, "BSTAR": 0.0004028021, "MEAN_MOTION_DOT": 0.00011302, "MEAN_MOTION_DDOT": 0}, "tle": {"line1": "1 58661U 23208B   25347.64719146  .00011302  00000+0  40280-3 0  9993", "line2": "2 58661  97.4321  99.1306 0006313 262.0627  97.9897 15.29063889109033"}}, "geometry": {"type": "Point", "coordinates": [98.61139773919378, 8.433717071723985]}}]}